[{"OBJECT_NAME":"STARLINK-34388","OBJECT_ID":"2025-123D","EPOCH":"2026-03-09T17:54:45.198144","MEAN_MOTION":14.9832904,"ECCENTRICITY":0.00032892,"INCLINATION":70.0023,"RA_OF_ASC_NODE":194.4439,"ARG_OF_PERICENTER":266.0952,"MEAN_ANOMALY":93.9832,"EPHEMERIS_TYPE":0,"CLASSIFICATION_TYPE":"U","NORAD_CAT_ID":64294,"ELEMENT_SET_NO":999,"REV_AT_EPOCH":4284,"BSTAR":0.00020458474,"MEAN_MOTION_DOT":2.349e-5,"MEAN_MOTION_DDOT":0},{"OBJECT_NAME":"CZ-6A DEB","OBJECT_ID":"2022-151ADF","EPOCH":"2026-03-09T04:17:36.420864","MEAN_MOTION":14.87187722,"ECCENTRICITY":0.00591597,"INCLINATION":98.625,"RA_OF_ASC_NODE":143.8674,"ARG_OF_PERICENTER":184.385,"MEAN_ANOMALY":175.6853,"EPHEMERIS_TYPE":0,"CLASSIFICATION_TYPE":"U","NORAD_CAT_ID":56583,"ELEMENT_SET_NO":999,"REV_AT_EPOCH":15845,"BSTAR":0.004175752,"MEAN_MOTION_DOT":0.00038922,"MEAN_MOTION_DDOT":0}]
